CSS (TIANHE)            
1 48274U 21035A   24056.23509519  .00037772  00000+0  41556-3 0  9996
2 48274  41.4685  53.3113 0007941  24.1141 336.0069 15.62373593161419
